{
  "type": "FeatureCollection",
  "features": [
    {
      "type": "Feature",
      "properties": {
        "norad_id": 50032,
        "name": "COSMOS 1408 DEB",
        "group": "cosmos-1408-debris",
        "lat": 51.304571342545636,
        "lon": 59.016588833488626,
        "alt_km": 430.5793663888562,
        "timestamp": "2025-12-21T09:37:22.925123+00:00",
        "meta_object_name": "COSMOS 1408 DEB",
        "meta_object_id": "1982-092RU",
        "meta_epoch": "2025-12-21T04:44:15.700416",
        "meta_mean_motion": 15.45771995,
        "meta_eccentricity": 0.0016081,
        "meta_inclination": 82.5635,
        "meta_ra_of_asc_node": 49.8404,
        "meta_arg_of_pericenter": 177.0061,
        "meta_mean_anomaly": 183.1287,
        "meta_ephemeris_type": 0,
        "meta_classification_type": "U",
        "meta_norad_cat_id": 50032,
        "meta_element_set_no": 999,
        "meta_rev_at_epoch": 22734,
        "meta_bstar": 7.6661e-05,
        "meta_mean_motion_dot": 3.769e-05,
        "meta_mean_motion_ddot": 0,
        "tle_line1": "1 50032U 82092RU  25355.19740394  .00003769  00000+0  76661-4 0  9992",
        "tle_line2": "2 50032  82.5635  49.8404 0016081 177.0061 183.1287 15.45771995227349"
      },
      "geometry": {
        "type": "Point",
        "coordinates": [
          59.016588833488626,
          51.304571342545636
        ]
      }
    },
    {
      "type": "Feature",
      "properties": {
        "norad_id": 50058,
        "name": "COSMOS 1408 DEB",
        "group": "cosmos-1408-debris",
        "lat": 65.07388587473014,
        "lon": -135.93739675929612,
        "alt_km": 360.3081001441742,
        "timestamp": "2025-12-21T09:37:22.925144+00:00",
        "meta_object_name": "COSMOS 1408 DEB",
        "meta_object_id": "1982-092SW",
        "meta_epoch": "2025-12-21T04:32:04.587936",
        "meta_mean_motion": 15.64578574,
        "meta_eccentricity": 0.0016127,
        "meta_inclination": 82.6126,
        "meta_ra_of_asc_node": 60.4962,
        "meta_arg_of_pericenter": 70.3199,
        "meta_mean_anomaly": 289.9799,
        "meta_ephemeris_type": 0,
        "meta_classification_type": "U",
        "meta_norad_cat_id": 50058,
        "meta_element_set_no": 999,
        "meta_rev_at_epoch": 22936,
        "meta_bstar": 0.00024668,
        "meta_mean_motion_dot": 0.00024013,
        "meta_mean_motion_ddot": 0,
        "tle_line1": "1 50058U 82092SW  25355.18894199  .00024013  00000+0  24668-3 0  9996",
        "tle_line2": "2 50058  82.6126  60.4962 0016127  70.3199 289.9799 15.64578574229365"
      },
      "geometry": {
        "type": "Point",
        "coordinates": [
          -135.93739675929612,
          65.07388587473014
        ]
      }
    },
    {
      "type": "Feature",
      "properties": {
        "norad_id": 50404,
        "name": "COSMOS 1408 DEB",
        "group": "cosmos-1408-debris",
        "lat": 69.69429609819097,
        "lon": 4.429645648651646,
        "alt_km": 455.23202897084775,
        "timestamp": "2025-12-21T09:37:22.925158+00:00",
        "meta_object_name": "COSMOS 1408 DEB",
        "meta_object_id": "1982-092ADS",
        "meta_epoch": "2025-12-21T01:12:46.848672",
        "meta_mean_motion": 15.14992545,
        "meta_eccentricity": 0.0168791,
        "meta_inclination": 82.2052,
        "meta_ra_of_asc_node": 206.5174,
        "meta_arg_of_pericenter": 170.4182,
        "meta_mean_anomaly": 190.0342,
        "meta_ephemeris_type": 0,
        "meta_classification_type": "U",
        "meta_norad_cat_id": 50404,
        "meta_element_set_no": 999,
        "meta_rev_at_epoch": 21319,
        "meta_bstar": 0.0022157,
        "meta_mean_motion_dot": 0.00059772,
        "meta_mean_motion_ddot": 0,
        "tle_line1": "1 50404U 82092ADS 25355.05054223  .00059772  00000+0  22157-2 0  9993",
        "tle_line2": "2 50404  82.2052 206.5174 0168791 170.4182 190.0342 15.14992545213194"
      },
      "geometry": {
        "type": "Point",
        "coordinates": [
          4.429645648651646,
          69.69429609819097
        ]
      }
    },
    {
      "type": "Feature",
      "properties": {
        "norad_id": 50621,
        "name": "COSMOS 1408 DEB",
        "group": "cosmos-1408-debris",
        "lat": -75.49752039459493,
        "lon": -84.53589774457767,
        "alt_km": 417.69989265793174,
        "timestamp": "2025-12-21T09:37:22.925169+00:00",
        "meta_object_name": "COSMOS 1408 DEB",
        "meta_object_id": "1982-092ALR",
        "meta_epoch": "2025-12-21T03:53:43.783584",
        "meta_mean_motion": 15.57064455,
        "meta_eccentricity": 0.0029107,
        "meta_inclination": 82.5696,
        "meta_ra_of_asc_node": 65.4107,
        "meta_arg_of_pericenter": 122.085,
        "meta_mean_anomaly": 238.3237,
        "meta_ephemeris_type": 0,
        "meta_classification_type": "U",
        "meta_norad_cat_id": 50621,
        "meta_element_set_no": 999,
        "meta_rev_at_epoch": 22381,
        "meta_bstar": 0.00025809,
        "meta_mean_motion_dot": 0.00019093,
        "meta_mean_motion_ddot": 0,
        "tle_line1": "1 50621U 82092ALR 25355.16231231  .00019093  00000+0  25809-3 0  9992",
        "tle_line2": "2 50621  82.5696  65.4107 0029107 122.0850 238.3237 15.57064455223818"
      },
      "geometry": {
        "type": "Point",
        "coordinates": [
          -84.53589774457767,
          -75.49752039459493
        ]
      }
    }
  ]
}